# From MPEC 2015-M77
107P/Wilson-Harrington,e,2.7983,266.8147,95.3729,2.625803,0.2316386,0.63125609,182.3677,07/19.0/2020,2000,g  9.0,4.0
# From MPC 89313
108P/Ciffreo,e,11.4527,50.4709,354.2445,3.743668,0.1360687,0.55704796,303.1559,07/19.0/2020,2000,g  8.0,12.0
# From  105, 420
109P/Swift-Tuttle,e,113.9428,139.0742,152.8781,26.11200,0.0073866,0.96312591,74.5582,07/19.0/2020,2000,g  4.0,6.0
# From MPC 92276
110P/Hartley,e,11.7073,287.5333,167.4398,3.600788,0.1442473,0.31785239,294.1719,07/19.0/2020,2000,g  1.0,12.0
# From MPC 75718
111P/Helin-Roman-Crockett,e,4.2275,89.7639,1.1353,4.144800,0.1168016,0.10552735,321.1471,07/19.0/2020,2000,g  5.0,8.0
# From MPC118097
112P/Urata-Niijima,e,24.1906,31.8464,21.4977,3.526165,0.1488504,0.58976643,24.1195,07/19.0/2020,2000,g 14.0,6.0
# From MPEC 2015-E14
113P/Spitaler,e,5.2946,306.7527,115.4840,3.701008,0.1384280,0.42708137,266.1214,07/19.0/2020,2000,g 13.5,4.0
# From MPEC 2019-TG9
114P/Wiseman-Skiff,e,18.2723,271.0592,172.8005,3.546799,0.1475534,0.55473111,27.5829,07/19.0/2020,2000,g 11.5,6.0
# From MPC105241
115P/Maury,e,11.6743,176.0183,121.0149,4.276818,0.1114353,0.51905458,358.8019,07/19.0/2020,2000,g 10.5,6.0
# From MPC106348
116P/Wild,e,3.6040,20.9959,173.3876,3.488515,0.1512667,0.37087056,249.8743,07/19.0/2020,2000,g  2.5,10.0
# From MPEC 2015-S97
117P/Helin-Roman-Alu,e,8.7013,58.8550,222.7323,4.086802,0.1192968,0.25577936,274.3725,07/19.0/2020,2000,g  9.0,4.0
# From MPC 95735
118P/Shoemaker-Levy,e,9.5407,143.3102,311.5891,3.397734,0.1573693,0.45694715,226.7466,07/19.0/2020,2000,g 12.0,4.0
# From MPC 84628
119P/Parker-Hartley,e,7.5114,104.9317,321.2777,3.828174,0.1315881,0.39979045,262.0443,07/19.0/2020,2000,g  3.5,8.0
# From MPC 80901
120P/Mueller,e,8.4868,358.6792,36.4581,3.965184,0.1248271,0.37494785,323.5778,07/19.0/2020,2000,g 12.0,4.0
# From MPC100283
121P/Shoemaker-Holt,e,20.1637,94.1389,11.2408,4.586755,0.1003335,0.18495797,252.3135,07/19.0/2020,2000,g  6.5,8.0
# From MPC 75718
122P/de Vico,e,84.6676,79.5163,13.0202,17.63256,0.0133116,0.96227901,120.7641,07/19.0/2020,2000,g  7.5,5.2
# From MPC114608
123P/West-Hartley,e,15.3373,46.4501,103.2872,3.865072,0.1297083,0.44871495,68.6716,07/19.0/2020,2000,g  4.0,10.0
# From MPEC 2020-N31
124P/Mrkos,e,31.5131,0.3711,183.8589,3.317760,0.1630935,0.50341887,13.5538,07/19.0/2020,2000,g 13.5,2.8
# From MPEC 2015-M77
125P/Spacewatch,e,9.9871,153.1609,87.2206,3.125051,0.1784097,0.51309670,123.3142,07/19.0/2020,2000,g  9.0,4.0
# From MPC 66205
126P/IRAS,e,45.8517,357.8479,356.4989,5.642150,0.0735423,0.69602084,280.4620,07/19.0/2020,2000,g  9.0,4.0
# From MPC 84321
127P/Holt-Olmstead,e,14.2984,13.6478,6.5373,3.449613,0.1538326,0.35982181,244.1073,07/19.0/2020,2000,g 11.0,6.0
# From MPC 89014
128P/Shoemaker-Holt,e,4.3659,214.2928,210.3781,4.493992,0.1034560,0.32038396,133.1081,07/19.0/2020,2000,g  8.5,4.0
# From MPEC 2019-TG9
129P/Shoemaker-Levy,e,3.4430,184.8910,308.1612,4.281153,0.1112661,0.08389190,263.2229,07/19.0/2020,2000,g 11.0,4.0
# From MPC 78188
130P/McNaught-Hughes,e,6.0639,70.2462,245.9597,3.383807,0.1583419,0.46131306,143.8978,07/19.0/2020,2000,g 10.0,6.0
# From MPC102101
131P/Mueller,e,7.3534,214.1752,179.0393,3.681430,0.1395337,0.34360828,75.6068,07/19.0/2020,2000,g 11.0,4.0
# From MPEC 2020-HN5
132P/Helin-Roman-Alu,e,5.3782,174.1229,216.3873,3.883662,0.1287781,0.56544302,297.9104,07/19.0/2020,2000,g 11.0,6.0
# From MPC 94676
133P/Elst-Pizarro,e,1.3891,160.1246,131.7059,3.163635,0.1751558,0.15719631,116.7377,07/19.0/2020,2000,g 15.4,2.0
# From MPC 89012
134P/Kowal-Vavrova,e,4.3439,202.0820,18.8719,6.257597,0.0629641,0.58678505,141.7410,07/19.0/2020,2000,g 11.5,4.0
# From MPEC 2015-E14
135P/Shoemaker-Levy,e,6.0614,213.0474,22.2507,3.804169,0.1328356,0.29553340,276.7091,07/19.0/2020,2000,g  9.0,4.0
# From MPC101100
136P/Mueller,e,9.4238,137.4448,224.8901,4.195337,0.1146975,0.29219239,173.1547,07/19.0/2020,2000,g 11.0,4.0
# From MPEC 2020-HN5
137P/Shoemaker-Levy,e,4.8534,233.0649,141.0064,4.520363,0.1025520,0.57322312,59.8428,07/19.0/2020,2000,g 11.0,4.0
# From MPEC 2016-U66
138P/Shoemaker-Levy,e,10.0910,309.3317,95.5763,3.623196,0.1429112,0.53023359,63.3465,07/19.0/2020,2000,g 15.0,6.0
# From MPEC 2020-HN5
139P/Vaisala-Oterma,e,2.3334,242.1967,165.7842,4.524689,0.1024050,0.24633818,97.5446,07/19.0/2020,2000,g  9.5,4.0
# From MPEC 2015-E14
140P/Bowell-Skiff,e,3.8276,343.3181,172.9234,6.436073,0.0603633,0.69114903,109.1566,07/19.0/2020,2000,g 11.5,6.0
# From MPC105242
141P/Machholz,e,13.9467,241.8558,153.5359,3.056581,0.1844379,0.73568631,332.4446,07/19.0/2020,2000,g 12.0,12.0
# From MPC 95735
141P-H/Machholz,e,12.8431,246.0900,149.4500,3.008012,0.1889230,0.74682218,359.9270,08/24.0/2015,2000,g 18.5,4.0
# From MPC 71683
142P/Ge-Wang,e,12.2390,176.0117,173.9790,5.007874,0.0879476,0.49848370,333.8031,07/19.0/2020,2000,g  9.0,4.0
# From MPEC 2020-HN5
143P/Kowal-Mrkos,e,4.6970,245.2699,320.4984,4.286484,0.1110586,0.41057001,89.4053,07/19.0/2020,2000,g 13.5,2.0
# From MPC104795
144P/Kushida,e,3.9843,243.8992,215.8748,3.810142,0.1325233,0.63892604,189.6051,07/19.0/2020,2000,g  8.5,8.0
# From MPC108598
145P/Shoemaker-Levy,e,11.2663,26.7899,10.2633,4.140124,0.1169995,0.54092704,123.1027,07/19.0/2020,2000,g 13.5,4.0
# From MPC100284
146P/Shoemaker-LINEAR,e,23.0829,53.4235,316.9112,4.033446,0.1216717,0.64655211,180.0384,07/19.0/2020,2000,g 15.0,4.0
# From MPC 75720
147P/Kushida-Muramatsu,e,2.3666,93.3305,351.3421,3.942778,0.1258927,0.24393752,205.3358,07/19.0/2020,2000,g 14.0,4.0
# From MPEC 2014-R70
148P/Anderson-LINEAR,e,3.6770,89.6058,6.8505,3.647911,0.1414613,0.54776208,261.7302,07/19.0/2020,2000,g  9.0,4.0
# From MPC 75720
149P/Mueller,e,29.8117,145.1291,44.0953,4.327149,0.1094968,0.39101915,56.6183,07/19.0/2020,2000,g  8.0,8.0
# From MPC 75720
150P/LONEOS,e,18.5075,272.4037,245.5756,3.880159,0.1289525,0.54653540,187.8162,07/19.0/2020,2000,g 13.5,4.0
# From MPEC 2015-Q71
151P/Helin,e,4.7270,143.1498,216.0489,5.764688,0.0712099,0.57298535,124.2460,07/19.0/2020,2000,g 10.0,6.0
# From MPC 79346
152P/Helin-Lawrence,e,9.8798,91.8689,163.8219,4.480931,0.1039087,0.30912577,303.5652,07/19.0/2020,2000,g 11.5,4.0
# From MPC 46101
153P/Ikeya-Zhang,e,27.7138,93.0529,35.2088,50.86925,0.0027166,0.98964735,0.0000,03/10.2553/2002,2000,g  9.0,4.0
# From MPC 87068
154P/Brewington,e,17.6300,343.0171,47.8466,4.803797,0.0936110,0.67515743,226.4344,07/19.0/2020,2000,g  2.5,12.0
# From MPC118098
155P/Shoemaker,e,6.3959,97.1977,14.6543,6.585094,0.0583258,0.72639179,14.4071,07/19.0/2020,2000,g 10.0,4.8
# From MPEC 2020-N31
156P/Russell-LINEAR,e,17.2626,35.3725,0.4152,3.460396,0.1531142,0.61476098,341.3413,07/19.0/2020,2000,g 15.5,2.0
# From MPC104795
157P/Tritton,e,12.8559,287.9409,155.5763,3.518747,0.1493214,0.57280550,244.6154,07/19.0/2020,2000,g 10.0,4.0
# From MPEC 2016-K18
158P/Kowal-LINEAR,e,7.9417,135.7632,190.2613,4.875093,0.0915650,0.01732572,315.0856,07/19.0/2020,2000,g  9.0,4.0
# From MPEC 2020-L06
159P/LONEOS,e,23.4613,55.0047,4.6212,5.856419,0.0695434,0.38146664,54.8704,07/19.0/2020,2000,g 10.0,4.0
# From MPEC 2019-TG9
160P/LINEAR,e,15.6157,333.3652,12.6629,3.772382,0.1345181,0.52617962,30.8976,07/19.0/2020,2000,g 15.5,2.0
# From MPC 75721
161P/Hartley-IRAS,e,95.7462,1.4740,46.9204,7.727146,0.0458855,0.83453314,253.3583,07/19.0/2020,2000,g  8.5,6.0
# From MPEC 2020-N31
162P/Siding Spring,e,27.5541,30.9164,357.1207,3.091135,0.1813540,0.58294194,334.2825,07/19.0/2020,2000,g 12.0,4.0
# From MPEC 2020-HN5
163P/NEAT,e,12.7079,102.0919,349.6607,3.769465,0.1346742,0.45184262,46.9827,07/19.0/2020,2000,g 14.5,4.0
# From MPC106349
164P/Christensen,e,16.2535,88.3043,325.8536,3.658054,0.1408734,0.53969788,109.8436,07/19.0/2020,2000,g 11.0,4.0
# From MPC 75721
165P/LINEAR,e,15.8989,0.7668,126.2004,17.90093,0.0130134,0.61472852,95.8651,07/19.0/2020,2000,g 11.5,2.0
# From MPC 75722
166P/NEAT,e,15.3623,64.4964,321.4463,13.83035,0.0191626,0.38223810,127.4031,07/19.0/2020,2000,g  5.5,4.0
# From MPC 75722
167P/CINEOS,e,19.1216,295.6517,344.2152,16.19019,0.0151295,0.27296721,106.1033,07/19.0/2020,2000,g  9.5,2.0
# From MPC102101
168P/Hergenrother,e,21.6136,355.4611,14.9918,3.581962,0.1453860,0.62070377,50.7139,07/19.0/2020,2000,g 15.5,4.0
# From MPEC 2020-L06
169P/NEAT,e,11.2964,176.0917,218.0642,2.601396,0.2349061,0.76799300,190.6538,07/19.0/2020,2000,g 16.0,2.0
# From MPC 89012
170P/Christensen,e,10.1250,142.9220,225.6390,4.198187,0.1145807,0.30346821,244.6545,07/19.0/2020,2000,g 12.0,4.0
# From MPC102102
171P/Spahr,e,21.9336,101.6973,347.1140,3.556365,0.1469585,0.50165272,81.1856,07/19.0/2020,2000,g 13.5,4.0
# From MPEC 2019-VB6
172P/Yeung,e,11.2323,30.8969,209.3884,4.210899,0.1140622,0.20606327,139.5240,07/19.0/2020,2000,g 13.0,4.0
# From MPEC 2020-HN5
173P/Mueller,e,16.4972,100.4009,29.3336,5.701290,0.0724010,0.26053233,322.5741,07/19.0/2020,2000,g  7.5,4.0
# From MPC 92985
174P/Echeclus,e,4.3431,173.2564,162.9352,10.70525,0.0281390,0.45714215,53.8458,07/19.0/2020,2000,g  9.4,2.0
# From MPC114608
175P/Hergenrother,e,6.0780,123.5260,56.2748,3.430388,0.1551276,0.43245749,45.2995,07/19.0/2020,2000,g 14.0,4.0
# From MPC 89015
176P/LINEAR,e,0.2348,345.8847,35.1329,3.193109,0.1727362,0.19300272,211.7976,07/19.0/2020,2000,g 15.1,2.0
# From MPEC 2020-L06
177P/Barnard,e,31.3310,272.3462,60.1603,24.38436,0.0081853,0.95515183,41.5126,07/19.0/2020,2000,g 15.0,4.0
# From MPC105242
178P/Hug-Bell,e,11.0897,102.8742,297.7847,3.630462,0.1424824,0.48180912,0.3408,07/19.0/2020,2000,g 13.5,4.0
# From MPC 75723
179P/Jedicke,e,19.8990,115.5259,296.5362,5.942260,0.0680419,0.30619734,313.8839,07/19.0/2020,2000,g  2.5,8.0
# From MPC100284
180P/NEAT,e,16.8682,84.5579,94.8846,3.861395,0.1298936,0.35327925,218.5674,07/19.0/2020,2000,g 11.0,4.0
# From MPC 89012
181P/Shoemaker-Levy,e,17.4862,35.4118,336.2526,3.871099,0.1294055,0.70039486,290.2686,07/19.0/2020,2000,g 11.5,4.0
# From MPEC 2014-J10
182P/LONEOS,e,16.2331,72.7037,53.8472,2.956035,0.1939277,0.66180878,231.4592,07/19.0/2020,2000,g 18.0,4.0
# From MPC110085
